# Made by eph2tle, compiled Mar 18 2025 17:40:23
# Run at Thu Mar 20 13:44:29 2025 UTC
#
# H 24.6    (from optical astrometry)
# Max error 0.05
#
#    The following TLEs (Two-Line Elements) were generated by fitting
# a numerically-integrated ephemeris,  based on the orbit given below,
# to the SDP4/SGP4 models.  Each TLE is good for the interval between
# its epoch and the epoch of the subsequent TLE (usually one day).
# The maximum deviation between the numerically integrated ephemerides
# and the TLE-based ephemeris, in kilometers,  is given for each TLE
# as the "worst residual".
#
#    This fitting is done using the 'eph2tle' code packaged with Find_Orb.
# The code has details on how the TLEs were computed :
#
#    https://github.com/Bill-Gray/find_orb/eph2tle.cpp
#
#    Be warned:  the error given is that between the numerically
# integrated ephems and the TLE model.  There will usually be at
# least some additional difference between the ephems and the actual
# motion of the satellite,  especially if the ephemerides are based
# on a short arc.  If the following orbital elements say something
# like "[based on] 10 observations 2015 Jan. 1-13",  and the TLEs
# are for 2015 May,  the extrapolation may be tenuous at best.  If
# your application requires a specific level of accuracy,  you may
# want to contact me;  I can give you some idea as to the fit of the
# underlying data (and possibly TLEs based on newer data).
#
#   You can usually find the underlying observational data,  and the
# fitted orbit,  residuals,  ephemerides,  and sometimes some comments
# about the object,  among the pages listed at
#
#    https://www.projectpluto.com/pluto/mpecs/pseudo.htm
#
#    WARNING:  for this object,  "normal" TLEs cannot be fitted.  (This
# usually means an object with an hyperbolic or nearly-parabolic orbit.)
# For this and similar cases,   an alternative model is used,  in which
# most of the traditional TLE data is replaced by six signed 8-digit hex
# numbers.  These six numbers are a state vector,  numerically integrated
# using a simplified force model.  This is necessary for objects at L2 or
# L1,  and sometimes for objects in high orbits where the SDP4/SGP4 model
# fails.  Some documentation is in 'get_el.cpp' in the source code at
# https://www.github.com/Bill-Gray/sat_code ; look for 'hex' in that file,
# with the actual integration done in 'sdp4.cpp'.  But be aware:  it's my
# own extension,  doesn't work with other code,  and is therefore used
# only when necessary.
#
#    Also,  if you use a TLE outside the "correct" time range (between
# its MJD and that of the next TLE),  all bets are off.  I've carefully
# computed and minimized the worst error over the "correct" time frame,
# but the ephemeris may (or may not) diverge wildly outside of it.
#
# Ephem range: 60676.000000 60856.000000 1.000000
# Created from Horizons data by 'jpl2mpc', ver Mar  1 2025, at Thu Mar 20 13:44:19 2025 UTC
# API VERSION: 1.2
# API SOURCE: NASA/JPL Horizons API
#
# *******************************************************************************
#  Revised: Mar 13, 2025             Gaia Observatory                     -139479
#                                http://sci.esa.int/gaia/
#
#  NOTE: Science observations end 2025-Jan-25 due to decreasing attitude
#   control propellant. After a few weeks of engineering tests, Gaia will leave
#   its orbit around L2 and be placed in a heliocentric disposal orbit.
#
#  BACKGROUND:
#   Gaia is designed and operated by the European Space Agency. It launched
#   December 19, 2013 @ 09:12 UTC on a Soyuz launcher from Kourou, French Guiana.
#
#   On 2014-Jan-08, it arrived at its operational Lissajous orbit around the
#   gravitationally stable Earth-Sun Lagrange-point L2, roughly 1.5 million km
#   from Earth in the direction opposite the Sun.  The orbit is not shadowed by
#   Earth eclipses. The orbit period is about 180 days; the size of the orbit
#   is typically 340,000 x 90,000 km.
#
#  MISSION:
#   Gaia's 5-year primary mission is to ...
#
#     * Measure the positions of ~1 billion stars both in our Galaxy and other
#        members of the Local Group, with an accuracy down to 24 uas
#     * Perform spectral and photometric measurements of all objects
#     * Derive space velocities of the Galaxy's constituent stars using the
#        stellar distances and motions
#     * Create a three-dimensional structural map of the Galaxy
#
#   Additional expected results include extrasolar planet detection, brown dwarf
#   detection, solar system asteroid discoveries, supernova early detection, and
#   testing of Einstein's general relativity.
#
#  GAIA SPACECRAFT:
#   Spacecraft dry mass total       1392 kg
#   Propellant                       237 kg
#   Total launch mass               2029 kg
#   Power: 12.8 m^2 solar array provides up to 1910 Watts
#
#  SCIENCE INSTRUMENTS:
#   Single integrated instrument that comprises three major functions:
#   astrometry, photometry (320-1000 nm) and spectrometry (846-874 nm).
#
#   The three functions use two common telescopes and a shared focal plane,
#   with each function having a dedicated area on the large 0.5m x 1m CCD
#   detector array.
#
#  SPACECRAFT TRAJECTORY (from ESA 2025--Mar-11 predicts thereafter)
#   Trajectory name                                    Start         Stop
#   --------------------------------------------    -----------   -----------
#   ORB1_20250311_000001                            2013-Dec-19   2025-Jun-30
# *******************************************************************************
#
#
# *******************************************************************************
# Ephemeris / API_USER Thu Mar 20 06:43:56 2025 Pasadena, USA      / Horizons
# *******************************************************************************
# Target body name: Gaia (spacecraft) (-139479)     {source: gaia_merged}
# Center body name: Earth (399)                     {source: gaia_merged}
# Center-site name: BODY CENTER
# *******************************************************************************
# Start time      : A.D. 2025-Jan-01 00:00:00.0000 TDB
# Stop  time      : A.D. 2025-Jun-30 00:00:00.0000 TDB
# Step-size       : 1800 steps
# *******************************************************************************
# Center geodetic : 0.0, 0.0, 0.0                   {E-lon(deg),Lat(deg),Alt(km)}
# Center cylindric: 0.0, 0.0, 0.0                   {E-lon(deg),Dxy(km),Dz(km)}
# Center radii    : 6378.137, 6378.137, 6356.752 km {Equator_a, b, pole_c}
# Output units    : KM-S
# Calendar mode   : Mixed Julian/Gregorian
# Output type     : GEOMETRIC cartesian states
# Output format   : 2 (position and velocity)
# EOP file        : eop.250319.p250615
# EOP coverage    : DATA-BASED 1962-JAN-20 TO 2025-MAR-19. PREDICTS-> 2025-JUN-14
# Reference frame : Ecliptic of J2000.0
# *******************************************************************************
# JDTDB
#    X     Y     Z
#    VX    VY    VZ
# *******************************************************************************
#
# Elements after 31 Mar 2025 :
#
# Orbital elements:  Gaia
#    Perihelion 2025 Mar 4.187901 +/- 0.0043299 TT =  4:30:34.6 (JD 2460738.687901)
# Epoch 2025 Apr 15.0 TT = JDT 2460780.5   Earth MOID: 0.0118      l0
# M  38.741132338 +/- 0.004582        (J2000 ecliptic)
# n   0.926553149 +/- 1.5184e-5       Peri.   31.310927 +/- 0.00848
# a   1.042051439 +/- 1.1384e-5       Node   132.342024 +/- 0.00951
# e   0.03335288 +/- 7.8299e-6        Incl.    0.067660 +/- 2.023e-5
# P   1.064/388.529d         H 28.73  G  0.15   U  5.3
# q 1.007296015 +/- 2.9606e-6    Q 1.076806864 +/- 1.9905e-5
# 10 of 13 observations 2025 Mar. 28-Apr. 15; mean residual 0".185
#
# 1 NoradU COSPAR   Epoch.epoch     dn/dt/2  d2n/dt2/6 BSTAR    T El# C
# 2 NoradU Inclina RAAscNode Eccent  ArgPeri MeanAno  MeanMotion Rev# C

# Worst residual: 0.50 km
# MJD 60676.000000 (2025 Jan  1  0:00)
Gaia = 2013-074A = NORAD 39479
1 39479U 13074A   24366.99919926 -004RHIYS +00KZVW02 +006RS7CUH 26360
2 39479                          -0002EVVJ -0000CULL -0000D6BF     05

# Worst residual: 0.45 km
# MJD 60677.000000 (2025 Jan  2  0:00)
Gaia = 2013-074A = NORAD 39479
1 39479U 13074A   25001.99919926 -005CBC07 +00KWMUYA +006OM89XH 26363
2 39479                          -0002EOPJ -0000E8U3 -0000D7J2     09

# Worst residual: 0.42 km
# MJD 60678.000000 (2025 Jan  3  0:00)
Gaia = 2013-074A = NORAD 39479
1 39479U 13074A   25002.99919926 -005X3NL6 +00KT1KNY +006LFVZCH 26360
2 39479                          -0002EJEO -0000FOVU -0000D9GR     08

# Worst residual: 0.41 km
# MJD 60679.000000 (2025 Jan  4  0:00)
Gaia = 2013-074A = NORAD 39479
1 39479U 13074A   25003.99919926 -006HUUVZ +00KP3HS0 +006I8XYCH 26363
2 39479                          -0002EF8G -0000H7KS -0000DCMX     04

# Worst residual: 0.44 km
# MJD 60680.000000 (2025 Jan  5  0:00)
Gaia = 2013-074A = NORAD 39479
1 39479U 13074A   25004.99919926 -0072L3CB +00KKRWI4 +006F11OMH 26365
2 39479                          -0002EB5A -0000ITK1 -0000DHG2     07

# Worst residual: 0.50 km
# MJD 60681.000000 (2025 Jan  6  0:00)
Gaia = 2013-074A = NORAD 39479
1 39479U 13074A   25005.99919926 -007NA8BR +00KG1YMP +006BRRSHH 26364
2 39479                          -0002E5VH -0000KJ6Z -0000DO5F     05

# Worst residual: 0.54 km
# MJD 60682.000000 (2025 Jan  7  0:00)
Gaia = 2013-074A = NORAD 39479
1 39479U 13074A   25006.99919926 -0087XTMU +00KAWS1J +0068GNFDH 26363
2 39479                          -0002DY0T -0000MCJW -0000DWTV     09

# Worst residual: 0.63 km
# MJD 60683.000000 (2025 Jan  8  0:00)
Gaia = 2013-074A = NORAD 39479
1 39479U 13074A   25007.99919926 -008SJ2UX +00K5BHIA +006537UAH 26360
2 39479                          -0002DM6J -0000O9D5 -0000E7DO     06

